{
  "type": "FeatureCollection",
  "features": [
    {
      "type": "Feature",
      "properties": {
        "norad_id": 44333,
        "name": "AT&T T-16",
        "group": "intelsat",
        "lat": 0.023059323559129624,
        "lon": 96.22079451743052,
        "alt_km": 35784.66029565538,
        "timestamp": "2025-12-12T07:43:20.171639+00:00",
        "meta_object_name": "AT&T T-16",
        "meta_object_id": "2019-034A",
        "meta_epoch": "2025-12-11T21:35:28.635936",
        "meta_mean_motion": 1.0027134,
        "meta_eccentricity": 7.803e-05,
        "meta_inclination": 0.0303,
        "meta_ra_of_asc_node": 77.076,
        "meta_arg_of_pericenter": 80.9177,
        "meta_mean_anomaly": 145.8602,
        "meta_ephemeris_type": 0,
        "meta_classification_type": "U",
        "meta_norad_cat_id": 44333,
        "meta_element_set_no": 999,
        "meta_rev_at_epoch": 2375,
        "meta_bstar": 0,
        "meta_mean_motion_dot": -1.07e-06,
        "meta_mean_motion_ddot": 0,
        "tle_line1": "1 44333U 19034A   25345.89963699 -.00000107  00000+0  00000+0 0  9999",
        "tle_line2": "2 44333   0.0303  77.0760 0000780  80.9177 145.8602  1.00271340 23750"
      },
      "geometry": {
        "type": "Point",
        "coordinates": [
          96.22079451743052,
          0.023059323559129624
        ]
      }
    },
    {
      "type": "Feature",
      "properties": {
        "norad_id": 44476,
        "name": "INTELSAT 39 (IS-39)",
        "group": "intelsat",
        "lat": -0.03283454825191566,
        "lon": -100.94977689172713,
        "alt_km": 35789.906596174435,
        "timestamp": "2025-12-12T07:43:20.171651+00:00",
        "meta_object_name": "INTELSAT 39 (IS-39)",
        "meta_object_id": "2019-049B",
        "meta_epoch": "2025-12-11T23:25:15.903264",
        "meta_mean_motion": 1.00267474,
        "meta_eccentricity": 0.0001157,
        "meta_inclination": 0.0183,
        "meta_ra_of_asc_node": 320.2601,
        "meta_arg_of_pericenter": 176.2508,
        "meta_mean_anomaly": 357.6803,
        "meta_ephemeris_type": 0,
        "meta_classification_type": "U",
        "meta_norad_cat_id": 44476,
        "meta_element_set_no": 999,
        "meta_rev_at_epoch": 2325,
        "meta_bstar": 0,
        "meta_mean_motion_dot": 4.3e-07,
        "meta_mean_motion_ddot": 0,
        "tle_line1": "1 44476U 19049B   25345.97587851  .00000043  00000+0  00000+0 0  9992",
        "tle_line2": "2 44476   0.0183 320.2601 0001157 176.2508 357.6803  1.00267474 23251"
      },
      "geometry": {
        "type": "Point",
        "coordinates": [
          -100.94977689172713,
          -0.03283454825191566
        ]
      }
    },
    {
      "type": "Feature",
      "properties": {
        "norad_id": 46114,
        "name": "GALAXY 30 (G-30)",
        "group": "intelsat",
        "lat": 0.03722506528569919,
        "lon": 72.10493424080305,
        "alt_km": 35795.29290048273,
        "timestamp": "2025-12-12T07:43:20.171662+00:00",
        "meta_object_name": "GALAXY 30 (G-30)",
        "meta_object_id": "2020-056C",
        "meta_epoch": "2025-12-11T23:11:21.488352",
        "meta_mean_motion": 1.00272653,
        "meta_eccentricity": 0.00022681,
        "meta_inclination": 0.0191,
        "meta_ra_of_asc_node": 335.5814,
        "meta_arg_of_pericenter": 285.5997,
        "meta_mean_anomaly": 42.5791,
        "meta_ephemeris_type": 0,
        "meta_classification_type": "U",
        "meta_norad_cat_id": 46114,
        "meta_element_set_no": 999,
        "meta_rev_at_epoch": 1941,
        "meta_bstar": 0,
        "meta_mean_motion_dot": 4.5e-07,
        "meta_mean_motion_ddot": 0,
        "tle_line1": "1 46114U 20056C   25345.96622093  .00000045  00000+0  00000+0 0  9992",
        "tle_line2": "2 46114   0.0191 335.5814 0002268 285.5997  42.5791  1.00272653 19410"
      },
      "geometry": {
        "type": "Point",
        "coordinates": [
          72.10493424080305,
          0.03722506528569919
        ]
      }
    },
    {
      "type": "Feature",
      "properties": {
        "norad_id": 54026,
        "name": "GALAXY 33 (G-33)",
        "group": "intelsat",
        "lat": 0.03004916662427174,
        "lon": 64.10336773021992,
        "alt_km": 35794.626781452134,
        "timestamp": "2025-12-12T07:43:20.171674+00:00",
        "meta_object_name": "GALAXY 33 (G-33)",
        "meta_object_id": "2022-128A",
        "meta_epoch": "2025-12-11T16:18:14.017824",
        "meta_mean_motion": 1.00271184,
        "meta_eccentricity": 0.00020309,
        "meta_inclination": 0.0122,
        "meta_ra_of_asc_node": 329.7994,
        "meta_arg_of_pericenter": 285.1983,
        "meta_mean_anomaly": 297.1989,
        "meta_ephemeris_type": 0,
        "meta_classification_type": "U",
        "meta_norad_cat_id": 54026,
        "meta_element_set_no": 999,
        "meta_rev_at_epoch": 1186,
        "meta_bstar": 0,
        "meta_mean_motion_dot": 8.7e-07,
        "meta_mean_motion_ddot": 0,
        "tle_line1": "1 54026U 22128A   25345.67932891  .00000087  00000+0  00000+0 0  9999",
        "tle_line2": "2 54026   0.0122 329.7994 0002030 285.1983 297.1989  1.00271184 11863"
      },
      "geometry": {
        "type": "Point",
        "coordinates": [
          64.10336773021992,
          0.03004916662427174
        ]
      }
    },
    {
      "type": "Feature",
      "properties": {
        "norad_id": 54027,
        "name": "GALAXY 34 (G-34)",
        "group": "intelsat",
        "lat": 0.040550710689117954,
        "lon": 68.16377234533854,
        "alt_km": 35792.49540901713,
        "timestamp": "2025-12-12T07:43:20.171686+00:00",
        "meta_object_name": "GALAXY 34 (G-34)",
        "meta_object_id": "2022-128B",
        "meta_epoch": "2025-12-11T16:19:21.410688",
        "meta_mean_motion": 1.00269841,
        "meta_eccentricity": 0.00014039,
        "meta_inclination": 0.0224,
        "meta_ra_of_asc_node": 340.3184,
        "meta_arg_of_pericenter": 271.9035,
        "meta_mean_anomaly": 304.3231,
        "meta_ephemeris_type": 0,
        "meta_classification_type": "U",
        "meta_norad_cat_id": 54027,
        "meta_element_set_no": 999,
        "meta_rev_at_epoch": 1203,
        "meta_bstar": 0,
        "meta_mean_motion_dot": 0,
        "meta_mean_motion_ddot": 0,
        "tle_line1": "1 54027U 22128B   25345.68010892  .00000000  00000+0  00000+0 0  9994",
        "tle_line2": "2 54027   0.0224 340.3184 0001403 271.9035 304.3231  1.00269841 12039"
      },
      "geometry": {
        "type": "Point",
        "coordinates": [
          68.16377234533854,
          0.040550710689117954
        ]
      }
    },
    {
      "type": "Feature",
      "properties": {
        "norad_id": 54243,
        "name": "GALAXY 31 (G-31)",
        "group": "intelsat",
        "lat": 0.015899726627382284,
        "lon": 76.10704484078298,
        "alt_km": 35793.157952419955,
        "timestamp": "2025-12-12T07:43:20.171698+00:00",
        "meta_object_name": "GALAXY 31 (G-31)",
        "meta_object_id": "2022-153A",
        "meta_epoch": "2025-12-11T23:12:28.881216",
        "meta_mean_motion": 1.00271366,
        "meta_eccentricity": 0.00017108,
        "meta_inclination": 0.0143,
        "meta_ra_of_asc_node": 273.7282,
        "meta_arg_of_pericenter": 357.8137,
        "meta_mean_anomaly": 36.5025,
        "meta_ephemeris_type": 0,
        "meta_classification_type": "U",
        "meta_norad_cat_id": 54243,
        "meta_element_set_no": 999,
        "meta_rev_at_epoch": 525,
        "meta_bstar": 0,
        "meta_mean_motion_dot": 2.2e-07,
        "meta_mean_motion_ddot": 0,
        "tle_line1": "1 54243U 22153A   25345.96700094  .00000022  00000+0  00000+0 0  9997",
        "tle_line2": "2 54243   0.0143 273.7282 0001710 357.8137  36.5025  1.00271366  5251"
      },
      "geometry": {
        "type": "Point",
        "coordinates": [
          76.10704484078298,
          0.015899726627382284
        ]
      }
    },
    {
      "type": "Feature",
      "properties": {
        "norad_id": 54244,
        "name": "GALAXY 32 (G-32)",
        "group": "intelsat",
        "lat": 0.023795691350857077,
        "lon": 106.09792764568213,
        "alt_km": 35796.77525239142,
        "timestamp": "2025-12-12T07:43:20.171709+00:00",
        "meta_object_name": "GALAXY 32 (G-32)",
        "meta_object_id": "2022-153B",
        "meta_epoch": "2025-12-11T19:55:38.198208",
        "meta_mean_motion": 1.00270455,
        "meta_eccentricity": 0.00027161,
        "meta_inclination": 0.0095,
        "meta_ra_of_asc_node": 3.9095,
        "meta_arg_of_pericenter": 308.178,
        "meta_mean_anomaly": 336.5954,
        "meta_ephemeris_type": 0,
        "meta_classification_type": "U",
        "meta_norad_cat_id": 54244,
        "meta_element_set_no": 999,
        "meta_rev_at_epoch": 1126,
        "meta_bstar": 0,
        "meta_mean_motion_dot": -1.66e-06,
        "meta_mean_motion_ddot": 0,
        "tle_line1": "1 54244U 22153B   25345.83030322 -.00000166  00000+0  00000+0 0  9994",
        "tle_line2": "2 54244   0.0095   3.9095 0002716 308.1780 336.5954  1.00270455 11263"
      },
      "geometry": {
        "type": "Point",
        "coordinates": [
          106.09792764568213,
          0.023795691350857077
        ]
      }
    }
  ]
}